[
    {
        "Altitude(m)": 610399.5614070266,
        "Argument of Periapsis(deg)": 0.0,
        "Eccentricity": 0.0,
        "Inclination(deg)": 60.0,
        "Latitude(deg)": 52.11142479444011,
        "Longitude(deg)": 42.58418284205305,
        "Mean Anomaly(deg)": 65.4545,
        "RAAN(deg)": 95.0,
        "Satellite Name": "Test1 422",
        "Satellite Number": 422,
        "Semi-Major Axis(m)": 6980739.136638005,
        "Time(s)": 0
    },
    {
        "Altitude(m)": 610481.7128587293,
        "Argument of Periapsis(deg)": 0.00010418945913296404,
        "Eccentricity": 0.0,
        "Inclination(deg)": 60.0,
        "Latitude(deg)": 52.471028345403774,
        "Longitude(deg)": 43.36631905741462,
        "Mean Anomaly(deg)": 66.07460614546181,
        "RAAN(deg)": 94.99957995086027,
        "Satellite Name": "Test1 422",
        "Satellite Number": 422,
        "Semi-Major Axis(m)": 6980739.136638005,
        "Time(s)": 10
    }
]